{"rates":[["X","EUR","USD","JPY","BGN","CZK","DKK","GBP","HUF","PLN","RON","SEK","CHF","ISK","NOK","TRY","AUD","BRL","CAD","CNY","HKD","IDR","ILS","INR","KRW","MXN","MYR","NZD","PHP","SGD","THB","ZAR"],["EUR",1,1.0814,139.02,1.9558,24.011,7.4387,0.888,396.96,4.6888,4.9423,11.2528,1.0051,154.3,10.6945,20.3196,1.5586,5.5512,1.4494,7.2729,8.4471,16412,3.7032,88.096,1343.41,20.4391,4.689,1.7014,59.44,1.4311,35.751,18.2482],["USD",1.0814,1,128.556,1.809,22.204,6.879,0.821,367.08,4.336,4.57,10.406,0.929,142.685,9.889,18.79,1.441,5.133,1.34,6.725,7.811,15176.623,3.424,81.465,1242.288,18.901,4.336,1.573,54.966,1.323,33.06,16.875],["JPY",139.02,0.008,1,0.014,0.173,0.054,0.006,2.855,0.034,0.036,0.081,0.007,1.11,0.077,0.146,0.011,0.04,0.01,0.052,0.061,118.055,0.027,0.634,9.663,0.147,0.034,0.012,0.428,0.01,0.257,0.131],["BGN",1.9558,0.553,71.081,1,12.277,3.803,0.454,202.966,2.397,2.527,5.754,0.514,78.894,5.468,10.389,0.797,2.838,0.741,3.719,4.319,8391.451,1.893,45.043,686.885,10.451,2.397,0.87,30.392,0.732,18.279,9.33],["CZK",24.011,0.045,5.79,0.081,1,0.31,0.037,16.532,0.195,0.206,0.469,0.042,6.426,0.445,0.846,0.065,0.231,0.06,0.303,0.352,683.52,0.154,3.669,55.95,0.851,0.195,0.071,2.476,0.06,1.489,0.76],["DKK",7.4387,0.145,18.689,0.263,3.228,1,0.119,53.364,0.63,0.664,1.513,0.135,20.743,1.438,2.732,0.21,0.746,0.195,0.978,1.136,2206.299,0.498,11.843,180.597,2.748,0.63,0.229,7.991,0.192,4.806,2.453],["GBP",0.888,1.218,156.554,2.202,27.039,8.377,1,447.027,5.28,5.566,12.672,1.132,173.761,12.043,22.882,1.755,6.251,1.632,8.19,9.513,18481.982,4.17,99.207,1512.849,23.017,5.28,1.916,66.937,1.612,40.26,20.55],["HUF",396.96,0.003,0.35,0.005,0.06,0.019,0.002,1,0.012,0.012,0.028,0.003,0.389,0.027,0.051,0.004,0.014,0.004,0.018,0.021,41.344,0.009,0.222,3.384,0.051,0.012,0.004,0.15,0.004,0.09,0.046],["PLN",4.6888,0.231,29.649,0.417,5.121,1.586,0.189,84.661,1,1.054,2.4,0.214,32.908,2.281,4.334,0.332,1.184,0.309,1.551,1.802,3500.256,0.79,18.789,286.515,4.359,1,0.363,12.677,0.305,7.625,3.892],["RON",4.9423,0.219,28.129,0.396,4.858,1.505,0.18,80.319,0.949,1,2.277,0.203,31.22,2.164,4.111,0.315,1.123,0.293,1.472,1.709,3320.721,0.749,17.825,271.819,4.136,0.949,0.344,12.027,0.29,7.234,3.692],["SEK",11.2528,0.096,12.354,0.174,2.134,0.661,0.079,35.277,0.417,0.439,1,0.089,13.712,0.95,1.806,0.139,0.493,0.129,0.646,0.751,1458.481,0.329,7.829,119.385,1.816,0.417,0.151,5.282,0.127,3.177,1.622],["CHF",1.0051,1.076,138.315,1.946,23.889,7.401,0.883,394.946,4.665,4.917,11.196,1,153.517,10.64,20.216,1.551,5.523,1.442,7.236,8.404,16328.724,3.684,87.649,1336.593,20.335,4.665,1.693,59.138,1.424,35.57,18.156],["ISK",154.3,0.007,0.901,0.013,0.156,0.048,0.006,2.573,0.03,0.032,0.073,0.007,1,0.069,0.132,0.01,0.036,0.009,0.047,0.055,106.364,0.024,0.571,8.706,0.132,0.03,0.011,0.385,0.009,0.232,0.118],["NOK",10.6945,0.101,12.999,0.183,2.245,0.696,0.083,37.118,0.438,0.462,1.052,0.094,14.428,1,1.9,0.146,0.519,0.136,0.68,0.79,1534.621,0.346,8.238,125.617,1.911,0.438,0.159,5.558,0.134,3.343,1.706],["TRY",20.3196,0.053,6.842,0.096,1.182,0.366,0.044,19.536,0.231,0.243,0.554,0.049,7.594,0.526,1,0.077,0.273,0.071,0.358,0.416,807.693,0.182,4.336,66.114,1.006,0.231,0.084,2.925,0.07,1.759,0.898],["AUD",1.5586,0.694,89.195,1.255,15.405,4.773,0.57,254.69,3.008,3.171,7.22,0.645,98.999,6.862,13.037,1,3.562,0.93,4.666,5.42,10529.963,2.376,56.523,861.934,13.114,3.008,1.092,38.137,0.918,22.938,11.708],["BRL",5.5512,0.195,25.043,0.352,4.325,1.34,0.16,71.509,0.845,0.89,2.027,0.181,27.796,1.927,3.66,0.281,1,0.261,1.31,1.522,2956.478,0.667,15.87,242.004,3.682,0.845,0.306,10.708,0.258,6.44,3.287],["CAD",1.4494,0.746,95.916,1.349,16.566,5.132,0.613,273.879,3.235,3.41,7.764,0.693,106.458,7.379,14.019,1.075,3.83,1,5.018,5.828,11323.306,2.555,60.781,926.873,14.102,3.235,1.174,41.01,0.987,24.666,12.59],["CNY",7.2729,0.149,19.115,0.269,3.301,1.023,0.122,54.581,0.645,0.68,1.547,0.138,21.216,1.47,2.794,0.214,0.763,0.199,1,1.161,2256.596,0.509,12.113,184.714,2.81,0.645,0.234,8.173,0.197,4.916,2.509],["HKD",8.4471,0.128,16.458,0.232,2.843,0.881,0.105,46.994,0.555,0.585,1.332,0.119,18.267,1.266,2.406,0.185,0.657,0.172,0.861,1,1942.915,0.438,10.429,159.038,2.42,0.555,0.201,7.037,0.169,4.232,2.16],["IDR",16412,0,0.008,0,0.001,0,0,0.024,0,0,0.001,0,0.009,0.001,0.001,0,0,0,0,0.001,1,0,0.005,0.082,0.001,0,0,0.004,0,0.002,0.001],["ILS",3.7032,0.292,37.541,0.528,6.484,2.009,0.24,107.194,1.266,1.335,3.039,0.271,41.667,2.888,5.487,0.421,1.499,0.391,1.964,2.281,4431.843,1,23.789,362.77,5.519,1.266,0.459,16.051,0.386,9.654,4.928],["INR",88.096,0.012,1.578,0.022,0.273,0.084,0.01,4.506,0.053,0.056,0.128,0.011,1.751,0.121,0.231,0.018,0.063,0.016,0.083,0.096,186.297,0.042,1,15.249,0.232,0.053,0.019,0.675,0.016,0.406,0.207],["KRW",1343.41,0.001,0.103,0.001,0.018,0.006,0.001,0.295,0.003,0.004,0.008,0.001,0.115,0.008,0.015,0.001,0.004,0.001,0.005,0.006,12.217,0.003,0.066,1,0.015,0.003,0.001,0.044,0.001,0.027,0.014],["MXN",20.4391,0.053,6.802,0.096,1.175,0.364,0.043,19.422,0.229,0.242,0.551,0.049,7.549,0.523,0.994,0.076,0.272,0.071,0.356,0.413,802.971,0.181,4.31,65.727,1,0.229,0.083,2.908,0.07,1.749,0.893],["MYR",4.689,0.231,29.648,0.417,5.121,1.586,0.189,84.658,1,1.054,2.4,0.214,32.907,2.281,4.333,0.332,1.184,0.309,1.551,1.801,3500.107,0.79,18.788,286.502,4.359,1,0.363,12.676,0.305,7.624,3.892],["NZD",1.7014,0.636,81.709,1.15,14.112,4.372,0.522,233.314,2.756,2.905,6.614,0.591,90.69,6.286,11.943,0.916,3.263,0.852,4.275,4.965,9646.174,2.177,51.779,789.591,12.013,2.756,1,34.936,0.841,21.013,10.725],["PHP",59.44,0.018,2.339,0.033,0.404,0.125,0.015,6.678,0.079,0.083,0.189,0.017,2.596,0.18,0.342,0.026,0.093,0.024,0.122,0.142,276.11,0.062,1.482,22.601,0.344,0.079,0.029,1,0.024,0.601,0.307],["SGD",1.4311,0.756,97.142,1.367,16.778,5.198,0.621,277.381,3.276,3.453,7.863,0.702,107.819,7.473,14.199,1.089,3.879,1.013,5.082,5.903,11468.101,2.588,61.558,938.725,14.282,3.277,1.189,41.534,1,24.981,12.751],["THB",35.751,0.03,3.889,0.055,0.672,0.208,0.025,11.103,0.131,0.138,0.315,0.028,4.316,0.299,0.568,0.044,0.155,0.041,0.203,0.236,459.064,0.104,2.464,37.577,0.572,0.131,0.048,1.663,0.04,1,0.51],["ZAR",18.2482,0.059,7.618,0.107,1.316,0.408,0.049,21.753,0.257,0.271,0.617,0.055,8.456,0.586,1.114,0.085,0.304,0.079,0.399,0.463,899.376,0.203,4.828,73.619,1.12,0.257,0.093,3.257,0.078,1.959,1]],"regions":[{"name":"United Kingdom","flag":"\ud83c\uddec\ud83c\udde7","code":"GB","dial_code":"+44","currency":"&#163;","currency_code":"GBP"},{"name":"United Arab Emirates","flag":"\ud83c\udde6\ud83c\uddea","code":"AE","dial_code":"+971","currency":"&#1583;","currency_code":"AED"},{"name":"Argentina","flag":"\ud83c\udde6\ud83c\uddf7","code":"AR","dial_code":"+54","currency":"&#036;","currency_code":"ARS"},{"name":"Australia","flag":"\ud83c\udde6\ud83c\uddfa","code":"AU","dial_code":"+61","currency":"&#036;","currency_code":"AUD"},{"name":"Europe","flag":"\ud83c\uddea\ud83c\uddfa","code":"EU","dial_code":"+43","currency":"&#8364;","currency_code":"EUR"},{"name":"Austria","flag":"\ud83c\udde6\ud83c\uddf9","code":"AT","dial_code":"+43","currency":"&#8364;","currency_code":"EUR"},{"name":"Belgium","flag":"\ud83c\udde7\ud83c\uddea","code":"BE","dial_code":"+32","currency":"&#8364;","currency_code":"EUR"},{"name":"Brazil","flag":"\ud83c\udde7\ud83c\uddf7","code":"BR","dial_code":"+55","currency":"R&#036;","currency_code":"BRL"},{"name":"Bulgaria","flag":"\ud83c\udde7\ud83c\uddec","code":"BG","dial_code":"+359","currency":"&#8364;","currency_code":"BGN"},{"name":"Canada","flag":"\ud83c\udde8\ud83c\udde6","code":"CA","dial_code":"+1","currency":"&#036;","currency_code":"CAD"},{"name":"Hong Kong","flag":"\ud83c\udded\ud83c\uddf0","code":"HK","dial_code":"+852","currency":"&#036;","currency_code":"HKD"},{"name":"Chile","flag":"\ud83c\udde8\ud83c\uddf1","code":"CL","dial_code":"+56","currency":"&#036;","currency_code":"CLP"},{"name":"China","flag":"\ud83c\udde8\ud83c\uddf3","code":"CN","dial_code":"+86","currency":"&#165;","currency_code":"CNY"},{"name":"Colombia","flag":"\ud83c\udde8\ud83c\uddf4","code":"CO","dial_code":"+57","currency":"&#036;","currency_code":"COP"},{"name":"Croatia","flag":"\ud83c\udded\ud83c\uddf7","code":"HR","dial_code":"+385","currency":"&#8364;","currency_code":"HRK"},{"name":"Czech Republic","flag":"\ud83c\udde8\ud83c\uddff","code":"CZ","dial_code":"+420","currency":"&#8364;","currency_code":"CZK"},{"name":"Denmark","flag":"\ud83c\udde9\ud83c\uddf0","code":"DK","dial_code":"+45","currency":"kr","currency_code":"DKK"},{"name":"Egypt","flag":"\ud83c\uddea\ud83c\uddec","code":"EG","dial_code":"+20","currency":"&#163;","currency_code":"EGP"},{"name":"Estonia","flag":"\ud83c\uddea\ud83c\uddea","code":"EE","dial_code":"+372","currency":"&#8364;","currency_code":"EUR"},{"name":"Finland","flag":"\ud83c\uddeb\ud83c\uddee","code":"FI","dial_code":"+358","currency":"&#8364;","currency_code":"EUR"},{"name":"France","flag":"\ud83c\uddeb\ud83c\uddf7","code":"FR","dial_code":"+33","currency":"&#8364;","currency_code":"EUR"},{"name":"Germany","flag":"\ud83c\udde9\ud83c\uddea","code":"DE","dial_code":"+49","currency":"&#8364;","currency_code":"EUR"},{"name":"Greece","flag":"\ud83c\uddec\ud83c\uddf7","code":"GR","dial_code":"+30","currency":"&#8364;","currency_code":"EUR"},{"name":"Hungary","flag":"\ud83c\udded\ud83c\uddfa","code":"HU","dial_code":"+36","currency":"&#8364;","currency_code":"HUF"},{"name":"Iceland","flag":"\ud83c\uddee\ud83c\uddf8","code":"IS","dial_code":"+354","currency":"kr","currency_code":"ISK"},{"name":"India","flag":"\ud83c\uddee\ud83c\uddf3","code":"IN","dial_code":"+91","currency":"&#8377;","currency_code":"INR"},{"name":"Indonesia","flag":"\ud83c\uddee\ud83c\udde9","code":"ID","dial_code":"+62","currency":"Rp","currency_code":"IDR"},{"name":"Ireland","flag":"\ud83c\uddee\ud83c\uddea","code":"IE","dial_code":"+353","currency":"&#8364;","currency_code":"EUR"},{"name":"Israel","flag":"\ud83c\uddee\ud83c\uddf1","code":"IL","dial_code":"+972","currency":"&#8362;","currency_code":"ILS"},{"name":"Italy","flag":"\ud83c\uddee\ud83c\uddf9","code":"IT","dial_code":"+39","currency":"&#8364;","currency_code":"EUR"},{"name":"Jamaica","flag":"\ud83c\uddef\ud83c\uddf2","code":"JM","dial_code":"+1876","currency":"&#036;","currency_code":"JMD"},{"name":"Japan","flag":"\ud83c\uddef\ud83c\uddf5","code":"JP","dial_code":"+81","currency":"&#165;","currency_code":"JPY"},{"name":"Korea, Democratic People's Republic of Korea","flag":"\ud83c\uddf0\ud83c\uddf5","code":"KP","dial_code":"+850","currency":"&#8361;","currency_code":"KPW"},{"name":"Korea, Republic of South Korea","flag":"\ud83c\uddf0\ud83c\uddf7","code":"KR","dial_code":"+82","currency":"&#8361;","currency_code":"KRW"},{"name":"Latvia","flag":"\ud83c\uddf1\ud83c\uddfb","code":"LV","dial_code":"+371","currency":"&#8364;","currency_code":"EUR"},{"name":"Lebanon","flag":"\ud83c\uddf1\ud83c\udde7","code":"LB","dial_code":"+961","currency":"&#036;","currency_code":"LBP"},{"name":"Liechtenstein","flag":"\ud83c\uddf1\ud83c\uddee","code":"LI","dial_code":"+423","currency":"&#8364;","currency_code":"CHF"},{"name":"Lithuania","flag":"\ud83c\uddf1\ud83c\uddf9","code":"LT","dial_code":"+370","currency":"&#8364;","currency_code":"EUR"},{"name":"Luxembourg","flag":"\ud83c\uddf1\ud83c\uddfa","code":"LU","dial_code":"+352","currency":"&#8364;","currency_code":"EUR"},{"name":"Malaysia","flag":"\ud83c\uddf2\ud83c\uddfe","code":"MY","dial_code":"+60","currency":"RM","currency_code":"MYR"},{"name":"Mexico","flag":"\ud83c\uddf2\ud83c\uddfd","code":"MX","dial_code":"+52","currency":"&#036;","currency_code":"MXN"},{"name":"Moldova","flag":"\ud83c\uddf2\ud83c\udde9","code":"MD","dial_code":"+373","currency":"&#8364;","currency_code":"MDL"},{"name":"Montenegro","flag":"\ud83c\uddf2\ud83c\uddea","code":"ME","dial_code":"+382","currency":"&#8364;","currency_code":"EUR"},{"name":"Netherlands","flag":"\ud83c\uddf3\ud83c\uddf1","code":"NL","dial_code":"+31","currency":"&#8364;","currency_code":"EUR"},{"name":"New Zealand","flag":"\ud83c\uddf3\ud83c\uddff","code":"NZ","dial_code":"+64","currency":"&#036;","currency_code":"NZD"},{"name":"Nigeria","flag":"\ud83c\uddf3\ud83c\uddec","code":"NG","dial_code":"+234","currency":"&#8358;","currency_code":"NGN"},{"name":"Norway","flag":"\ud83c\uddf3\ud83c\uddf4","code":"NO","dial_code":"+47","currency":"kr","currency_code":"NOK"},{"name":"Pakistan","flag":"\ud83c\uddf5\ud83c\uddf0","code":"PK","dial_code":"+92","currency":"&#8360;","currency_code":"PKR"},{"name":"Philippines","flag":"\ud83c\uddf5\ud83c\udded","code":"PH","dial_code":"+63","currency":"&#8369;","currency_code":"PHP"},{"name":"Poland","flag":"\ud83c\uddf5\ud83c\uddf1","code":"PL","dial_code":"+48","currency":"&#8364;","currency_code":"PLN"},{"name":"Portugal","flag":"\ud83c\uddf5\ud83c\uddf9","code":"PT","dial_code":"+351","currency":"&#8364;","currency_code":"EUR"},{"name":"Romania","flag":"\ud83c\uddf7\ud83c\uddf4","code":"RO","dial_code":"+40","currency":"&#8364;","currency_code":"RON"},{"name":"Russia","flag":"\ud83c\uddf7\ud83c\uddfa","code":"RU","dial_code":"+7","currency":"&#8381;","currency_code":"RUB"},{"name":"Serbia","flag":"\ud83c\uddf7\ud83c\uddf8","code":"RS","dial_code":"+381","currency":"&#8364;","currency_code":"RSD"},{"name":"Singapore","flag":"\ud83c\uddf8\ud83c\uddec","code":"SG","dial_code":"+65","currency":"&#036;","currency_code":"SGD"},{"name":"Slovakia","flag":"\ud83c\uddf8\ud83c\uddf0","code":"SK","dial_code":"+421","currency":"&#8364;","currency_code":"EUR"},{"name":"Slovenia","flag":"\ud83c\uddf8\ud83c\uddee","code":"SI","dial_code":"+386","currency":"&#8364;","currency_code":"EUR"},{"name":"South Africa","flag":"\ud83c\uddff\ud83c\udde6","code":"ZA","dial_code":"+27","currency":"R","currency_code":"ZAR"},{"name":"Spain","flag":"\ud83c\uddea\ud83c\uddf8","code":"ES","dial_code":"+34","currency":"&#8364;","currency_code":"EUR"},{"name":"Sri Lanka","flag":"\ud83c\uddf1\ud83c\uddf0","code":"LK","dial_code":"+94","currency":"Rs","currency_code":"LKR"},{"name":"Sweden","flag":"\ud83c\uddf8\ud83c\uddea","code":"SE","dial_code":"+46","currency":"kr","currency_code":"SEK"},{"name":"Switzerland","flag":"\ud83c\udde8\ud83c\udded","code":"CH","dial_code":"+41","currency":"&#8364;","currency_code":"EUR"},{"name":"Taiwan","flag":"\ud83c\uddf9\ud83c\uddfc","code":"TW","dial_code":"+886","currency":"&#036;","currency_code":"TWD"},{"name":"Thailand","flag":"\ud83c\uddf9\ud83c\udded","code":"TH","dial_code":"+66","currency":"&#3647;","currency_code":"THB"},{"name":"Turkey","flag":"\ud83c\uddf9\ud83c\uddf7","code":"TR","dial_code":"+90","currency":"&#8378;","currency_code":"TRY"},{"name":"Ukraine","flag":"\ud83c\uddfa\ud83c\udde6","code":"UA","dial_code":"+380","currency":"&#8364;","currency_code":"UAH"},{"name":"United States","flag":"\ud83c\uddfa\ud83c\uddf8","code":"US","dial_code":"+1","currency":"&#036;","currency_code":"USD"},{"name":"Vietnam","flag":"\ud83c\uddfb\ud83c\uddf3","code":"VN","dial_code":"+84","currency":"&#8363;","currency_code":"VND"}],"product_click_events":[],"all_events":[],"all_orders":[],"orders_by_currency":[],"revenue_by_currency":[],"sincedm":"17 Dec","now_datedm":"16 Jan","client_name":"McLabels","conversion_rate":0,"touchpoints":{"distinct_expand_events":0,"distinct_gridView_events":0,"distinct_shop_events":0},"total_assisted_sales_in_primary_currency":{"GBP":0}}